{
  "type": "FeatureCollection",
  "features": [
    {
      "type": "Feature",
      "properties": {
        "norad_id": 35152,
        "name": "FENGYUN 1C DEB",
        "group": "fengyun-1c-debris",
        "lat": -62.82049365325118,
        "lon": -174.82669861215865,
        "alt_km": 980.6194240469231,
        "timestamp": "2025-12-08T21:31:04.955180+00:00",
        "meta_object_name": "FENGYUN 1C DEB",
        "meta_object_id": "1999-025DMG",
        "meta_epoch": "2025-12-05T06:35:53.513952",
        "meta_mean_motion": 13.76418253,
        "meta_eccentricity": 0.01948408,
        "meta_inclination": 99.8194,
        "meta_ra_of_asc_node": 161.7269,
        "meta_arg_of_pericenter": 34.772,
        "meta_mean_anomaly": 326.5985,
        "meta_ephemeris_type": 0,
        "meta_classification_type": "U",
        "meta_norad_cat_id": 35152,
        "meta_element_set_no": 999,
        "meta_rev_at_epoch": 62090,
        "meta_bstar": 0.0008765557,
        "meta_mean_motion_dot": 9.38e-06,
        "meta_mean_motion_ddot": 0,
        "tle_line1": "1 35152U 99025DMG 25339.27492493  .00000938  00000+0  87656-3 0  9997",
        "tle_line2": "2 35152  99.8194 161.7269 0194840  34.7720 326.5985 13.76418253620904"
      },
      "geometry": {
        "type": "Point",
        "coordinates": [
          -174.82669861215865,
          -62.82049365325118
        ]
      }
    },
    {
      "type": "Feature",
      "properties": {
        "norad_id": 35153,
        "name": "FENGYUN 1C DEB",
        "group": "fengyun-1c-debris",
        "lat": -71.35731023660018,
        "lon": 26.638467137199854,
        "alt_km": 768.1709323159312,
        "timestamp": "2025-12-08T21:31:04.955190+00:00",
        "meta_object_name": "FENGYUN 1C DEB",
        "meta_object_id": "1999-025DMH",
        "meta_epoch": "2025-12-05T12:32:10.721184",
        "meta_mean_motion": 14.73673401,
        "meta_eccentricity": 0.01712634,
        "meta_inclination": 98.9027,
        "meta_ra_of_asc_node": 230.6222,
        "meta_arg_of_pericenter": 105.5858,
        "meta_mean_anomaly": 256.4323,
        "meta_ephemeris_type": 0,
        "meta_classification_type": "U",
        "meta_norad_cat_id": 35153,
        "meta_element_set_no": 999,
        "meta_rev_at_epoch": 97111,
        "meta_bstar": 0.00065769335,
        "meta_mean_motion_dot": 5.361e-05,
        "meta_mean_motion_ddot": 0,
        "tle_line1": "1 35153U 99025DMH 25339.52234631  .00005361  00000+0  65769-3 0  9990",
        "tle_line2": "2 35153  98.9027 230.6222 0171263 105.5858 256.4323 14.73673401971113"
      },
      "geometry": {
        "type": "Point",
        "coordinates": [
          26.638467137199854,
          -71.35731023660018
        ]
      }
    },
    {
      "type": "Feature",
      "properties": {
        "norad_id": 35154,
        "name": "FENGYUN 1C DEB",
        "group": "fengyun-1c-debris",
        "lat": -53.87428090347789,
        "lon": -89.01378200244696,
        "alt_km": 965.4144318245453,
        "timestamp": "2025-12-08T21:31:04.955200+00:00",
        "meta_object_name": "FENGYUN 1C DEB",
        "meta_object_id": "1999-025DMJ",
        "meta_epoch": "2025-12-06T14:15:56.224800",
        "meta_mean_motion": 14.18884771,
        "meta_eccentricity": 0.01795392,
        "meta_inclination": 99.4212,
        "meta_ra_of_asc_node": 101.6887,
        "meta_arg_of_pericenter": 59.7259,
        "meta_mean_anomaly": 302.1547,
        "meta_ephemeris_type": 0,
        "meta_classification_type": "U",
        "meta_norad_cat_id": 35154,
        "meta_element_set_no": 999,
        "meta_rev_at_epoch": 64490,
        "meta_bstar": 0.0005498594,
        "meta_mean_motion_dot": 1.295e-05,
        "meta_mean_motion_ddot": 0,
        "tle_line1": "1 35154U 99025DMJ 25340.59440075  .00001295  00000+0  54986-3 0  9992",
        "tle_line2": "2 35154  99.4212 101.6887 0179539  59.7259 302.1547 14.18884771644903"
      },
      "geometry": {
        "type": "Point",
        "coordinates": [
          -89.01378200244696,
          -53.87428090347789
        ]
      }
    },
    {
      "type": "Feature",
      "properties": {
        "norad_id": 35155,
        "name": "FENGYUN 1C DEB",
        "group": "fengyun-1c-debris",
        "lat": -9.872338221373909,
        "lon": -3.7878113971070473,
        "alt_km": 832.8310253698737,
        "timestamp": "2025-12-08T21:31:04.955213+00:00",
        "meta_object_name": "FENGYUN 1C DEB",
        "meta_object_id": "1999-025DMK",
        "meta_epoch": "2025-12-01T18:40:23.892384",
        "meta_mean_motion": 14.19237116,
        "meta_eccentricity": 0.00262936,
        "meta_inclination": 98.5005,
        "meta_ra_of_asc_node": 347.8913,
        "meta_arg_of_pericenter": 103.4458,
        "meta_mean_anomaly": 256.9651,
        "meta_ephemeris_type": 0,
        "meta_classification_type": "U",
        "meta_norad_cat_id": 35155,
        "meta_element_set_no": 999,
        "meta_rev_at_epoch": 72558,
        "meta_bstar": 0.00064940785,
        "meta_mean_motion_dot": 1.325e-05,
        "meta_mean_motion_ddot": 0,
        "tle_line1": "1 35155U 99025DMK 25335.77805431  .00001325  00000+0  64941-3 0  9994",
        "tle_line2": "2 35155  98.5005 347.8913 0026293 103.4458 256.9651 14.19237116725586"
      },
      "geometry": {
        "type": "Point",
        "coordinates": [
          -3.7878113971070473,
          -9.872338221373909
        ]
      }
    },
    {
      "type": "Feature",
      "properties": {
        "norad_id": 35156,
        "name": "FENGYUN 1C DEB",
        "group": "fengyun-1c-debris",
        "lat": -10.519830425769404,
        "lon": 147.77579892771587,
        "alt_km": 839.2179699914377,
        "timestamp": "2025-12-08T21:31:04.955224+00:00",
        "meta_object_name": "FENGYUN 1C DEB",
        "meta_object_id": "1999-025DML",
        "meta_epoch": "2025-12-03T09:32:20.618304",
        "meta_mean_motion": 14.10610073,
        "meta_eccentricity": 0.0036093,
        "meta_inclination": 98.7501,
        "meta_ra_of_asc_node": 324.0617,
        "meta_arg_of_pericenter": 174.1914,
        "meta_mean_anomaly": 185.9683,
        "meta_ephemeris_type": 0,
        "meta_classification_type": "U",
        "meta_norad_cat_id": 35156,
        "meta_element_set_no": 999,
        "meta_rev_at_epoch": 63912,
        "meta_bstar": 0.00049263017,
        "meta_mean_motion_dot": 8.41e-06,
        "meta_mean_motion_ddot": 0,
        "tle_line1": "1 35156U 99025DML 25337.39746086  .00000841  00000+0  49263-3 0  9997",
        "tle_line2": "2 35156  98.7501 324.0617 0036093 174.1914 185.9683 14.10610073639127"
      },
      "geometry": {
        "type": "Point",
        "coordinates": [
          147.77579892771587,
          -10.519830425769404
        ]
      }
    },
    {
      "type": "Feature",
      "properties": {
        "norad_id": 35159,
        "name": "FENGYUN 1C DEB",
        "group": "fengyun-1c-debris",
        "lat": 61.38121299645605,
        "lon": -105.47516735520965,
        "alt_km": 732.2396486036769,
        "timestamp": "2025-12-08T21:31:04.955234+00:00",
        "meta_object_name": "FENGYUN 1C DEB",
        "meta_object_id": "1999-025DMP",
        "meta_epoch": "2025-12-06T04:17:59.727264",
        "meta_mean_motion": 14.45016836,
        "meta_eccentricity": 0.00124734,
        "meta_inclination": 98.8422,
        "meta_ra_of_asc_node": 55.1216,
        "meta_arg_of_pericenter": 191.978,
        "meta_mean_anomaly": 197.0707,
        "meta_ephemeris_type": 0,
        "meta_classification_type": "U",
        "meta_norad_cat_id": 35159,
        "meta_element_set_no": 999,
        "meta_rev_at_epoch": 61386,
        "meta_bstar": 0.0031137795,
        "meta_mean_motion_dot": 0.00010848,
        "meta_mean_motion_ddot": 0,
        "tle_line1": "1 35159U 99025DMP 25340.17916351  .00010848  00000+0  31138-2 0  9993",
        "tle_line2": "2 35159  98.8422  55.1216 0012473 191.9780 197.0707 14.45016836613863"
      },
      "geometry": {
        "type": "Point",
        "coordinates": [
          -105.47516735520965,
          61.38121299645605
        ]
      }
    },
    {
      "type": "Feature",
      "properties": {
        "norad_id": 35160,
        "name": "FENGYUN 1C DEB",
        "group": "fengyun-1c-debris",
        "lat": -33.1129816672182,
        "lon": 103.1218148527836,
        "alt_km": 745.0788441386767,
        "timestamp": "2025-12-08T21:31:04.955244+00:00",
        "meta_object_name": "FENGYUN 1C DEB",
        "meta_object_id": "1999-025DMQ",
        "meta_epoch": "2025-12-06T01:06:31.144320",
        "meta_mean_motion": 14.35929715,
        "meta_eccentricity": 0.01759557,
        "meta_inclination": 99.1551,
        "meta_ra_of_asc_node": 94.0576,
        "meta_arg_of_pericenter": 259.0237,
        "meta_mean_anomaly": 99.111,
        "meta_ephemeris_type": 0,
        "meta_classification_type": "U",
        "meta_norad_cat_id": 35160,
        "meta_element_set_no": 999,
        "meta_rev_at_epoch": 64835,
        "meta_bstar": 0.00080713756,
        "meta_mean_motion_dot": 2.737e-05,
        "meta_mean_motion_ddot": 0,
        "tle_line1": "1 35160U 99025DMQ 25340.04619380  .00002737  00000+0  80714-3 0  9996",
        "tle_line2": "2 35160  99.1551  94.0576 0175955 259.0237  99.1110 14.35929715648351"
      },
      "geometry": {
        "type": "Point",
        "coordinates": [
          103.1218148527836,
          -33.1129816672182
        ]
      }
    }
  ]
}